STARLINK-5816           
1 55778U 23028AP  23088.49284019  .00006198  00000+0  53248-4 0  9994
2 55778  70.0011  82.8398 0003081 267.8913  92.1930 15.69936400  4718
STARLINK-5817           
1 55779U 23028AQ  23088.46537416  .00004025  00000+0  35220-4 0  9991
2 55779  69.9996  82.7281 0003331 270.2844  89.7970 15.69929398  4711
STARLINK-5819           
1 55780U 23028AR  23088.49274914 -.00006058  00000+0 -48716-4 0  9991
2 55780  70.0019  82.8393 0002354 291.0026  69.0918 15.69898607  4715
STARLINK-5820           
1 55781U 23028AS  23088.49263869 -.00000931  00000+0 -59795-5 0  9993
2 55781  70.0010  82.8381 0003312 267.6617  92.4199 15.69913291  4712
STARLINK-5826           
1 55782U 23028AT  23088.49241201  .00014556  00000+0  12249-3 0  9997
2 55782  70.0011  82.8368 0003310 269.8956  90.1861 15.69948681  4719
STARLINK-5825           
1 55783U 23028AU  23088.49230694  .00005876  00000+0  50568-4 0  9994
2 55783  70.0008  82.8366 0003458 266.0207  94.0593 15.69940548  4714
STARLINK-5797           
1 55784U 23028AV  23088.49189111  .00001119  00000+0  11074-4 0  9997
2 55784  70.0016  82.8349 0003360 260.5123  99.5693 15.69924610  4716
STARLINK-5818           
1 55785U 23028AW  23088.49220754  .00003318  00000+0  29346-4 0  9991
2 55785  70.0008  82.8361 0003225 270.3750  89.7076 15.69930057  4715
STARLINK-5823           
1 55786U 23028AX  23088.49178655  .00002795  00000+0  25002-4 0  9997
2 55786  70.0005  82.8343 0003371 266.2934  93.7876 15.69928617  4704
STARLINK-5811           
1 55787U 23028AY  23088.49210179  .00005043  00000+0  43669-4 0  9994
2 55787  70.0011  82.8364 0003166 270.6503  89.4330 15.69932567  4715
STARLINK-5804           
1 55788U 23028AZ  23088.49199785  .00002329  00000+0  21134-4 0  9991
2 55788  70.0002  82.8336 0003356 264.7804  95.3009 15.69927190  4719
STARLINK-5815           
1 55789U 23028BA  23088.49146826  .00000792  00000+0  83520-5 0  9990
2 55789  70.0006  82.8321 0003536 259.9647 100.1150 15.69922768  4717
STARLINK-5813           
1 55790U 23028BB  23088.49157848  .00000469  00000+0  56658-5 0  9991
2 55790  70.0006  82.8333 0002891 264.6592  95.4274 15.69922916  4715
STARLINK-5807           
1 55791U 23028BC  23088.49168077  .00002735  00000+0  24499-4 0  9993
2 55791  70.0007  82.8341 0003312 266.4541  93.6276 15.69930309  4716
ONEWEB-0530             
1 55796U 23029A   23088.30110772  .00007885  00000+0  78476-3 0  9992
2 55796  86.5132 190.7155 0011268 143.1854 217.0150 14.91471683  2913
ONEWEB-0534             
1 55797U 23029B   23088.30184824  .00007709  00000+0  76833-3 0  9992
2 55797  86.5084 190.7034 0011081 144.1079 216.0895 14.91413858  2914
ONEWEB-0556             
1 55798U 23029C   23088.30008258  .00008433  00000+0  83771-3 0  9993
2 55798  86.5122 190.7123 0011502 141.9451 218.2591 14.91552469  2913
ONEWEB-0562             
1 55799U 23029D   23088.57163950  .00008541  00000+0  85366-3 0  9996
2 55799  86.5088 190.5864 0010603 144.2621 215.9318 14.91316968  2958
ONEWEB-0563             
1 55800U 23029E   23088.30211942  .00007857  00000+0  78361-3 0  9991
2 55800  86.5132 190.7169 0010851 144.1228 216.0730 14.91393861  2911
ONEWEB-0564             
1 55801U 23029F   23088.30040170  .00007776  00000+0  77287-3 0  9991
2 55801  86.5091 190.7047 0011452 142.6169 217.5858 14.91525201  2918
ONEWEB-0638             
1 55802U 23029G   23088.35967173  .00008218  00000+0  80410-3 0  9992
2 55802  86.5115 190.6783 0013891 145.0685 215.1457 14.92129090  2928
ONEWEB-0639             
1 55803U 23029H   23088.52675919  .00006111  00000+0  69740-3 0  9999
2 55803  86.5513 190.6626 0010111 147.4985 212.6864 14.85912456  3628
ONEWEB-0640             
1 55804U 23029J   23088.35547436  .00009011  00000+0  87468-3 0  9992
2 55804  86.5100 190.6720 0014497 151.1280 209.0753 14.92450367  2922
ONEWEB-0641             
1 55805U 23029K   23088.58334491  .00031512  00000+0  35529-2 0  9994
2 55805  86.5529 190.6199 0012979 142.8996 223.5637 14.86388571  1305
ONEWEB-0642             
1 55806U 23029L   23088.32234759  .00005744  00000+0  65457-3 0  9995
2 55806  86.5554 190.7571 0010631 144.1793 216.0147 14.85956388  2919
ONEWEB-0643             
1 55807U 23029M   23088.36030510  .00008652  00000+0  84769-3 0  9997
2 55807  86.5099 190.6715 0014047 145.4057 214.8088 14.92079785  2921
ONEWEB-0644             
1 55808U 23029N   23088.52653336  .00006066  00000+0  69323-3 0  9999
2 55808  86.5550 190.6704 0010411 145.5344 214.6558 14.85852935  3629
ONEWEB-0645             
1 55809U 23029P   23088.58334491  .00031499  00000+0  35636-2 0  9991
2 55809  86.5559 190.6269 0013227 142.2452 226.2258 14.86246114  1303
ONEWEB-0646             
1 55810U 23029Q   23088.52638170  .00007883  00000+0  90496-3 0  9994
2 55810  86.5567 190.6714 0010422 144.3671 215.8252 14.85699010  2944
ONEWEB-0648             
1 55811U 23029R   23088.29198452  .00010825  00000+0  10582-2 0  9990
2 55811  86.5105 190.7038 0014981 143.7722 216.4524 14.92172827  2913
ONEWEB-0649             
1 55812U 23029S   23088.31780486  .00006022  00000+0  67410-3 0  9995
2 55812  86.5459 190.7371 0011303 139.5371 220.6697 14.86691710  2912
ONEWEB-0650             
1 55813U 23029T   23088.31472342  .00005741  00000+0  64868-3 0  9996
2 55813  86.5544 190.7447 0012787 142.4377 217.7744 14.86287193  2914
ONEWEB-0652             
1 55814U 23029U   23088.29427549  .00008417  00000+0  82636-3 0  9999
2 55814  86.5099 190.7018 0013688 144.5873 215.6266 14.91998426  2919
ONEWEB-0653             
1 55815U 23029V   23088.36173928  .00008857  00000+0  87037-3 0  9995
2 55815  86.5109 190.6793 0013554 144.1207 216.0933 14.91966781  2926
ONEWEB-0654             
1 55816U 23029W   23088.35529189  .00008664  00000+0  84045-3 0  9991
2 55816  86.5113 190.6729 0015099 150.3926 209.8160 14.92465040  2929
ONEWEB-0656             
1 55817U 23029X   23088.35155201  .00008548  00000+0  82308-3 0  9993
2 55817  86.5094 190.6693 0015409 154.8064 205.3920 14.92754374  2921
ONEWEB-0657             
1 55818U 23029Y   23088.58334491 -.00611556  00000+0 -75034-1 0  9996
2 55818  86.5630 190.6145 0013549 143.3603 237.4561 14.85725535  1302
ONEWEB-0658             
1 55819U 23029Z   23088.58334491  .00032245  00000+0  36052-2 0  9995
2 55819  86.5508 190.6142 0013425 142.8511 237.5069 14.86723065  1300
ONEWEB-0660             
1 55820U 23029AA  23088.56191051  .00008755  00000+0  85850-3 0  9998
2 55820  86.5114 190.5899 0013814 144.6227 215.5920 14.92050868  2954
ONEWEB-0661             
1 55821U 23029AB  23088.35436092  .00008307  00000+0  80425-3 0  9999
2 55821  86.5094 190.6698 0015028 151.1101 209.0962 14.92537034  2929
ONEWEB-0662             
1 55822U 23029AC  23088.36061500  .00008740  00000+0  85695-3 0  9994
2 55822  86.5113 190.6792 0013909 144.8608 215.3540 14.92053733  2925
ONEWEB-0663             
1 55823U 23029AD  23088.28545378  .00008233  00000+0  79418-3 0  9999
2 55823  86.5116 190.7017 0015284 154.1362 206.0633 14.92678986  2911
ONEWEB-0664             
1 55824U 23029AE  23088.35404518  .00008431  00000+0  81582-3 0  9993
2 55824  86.5087 190.6688 0015272 151.9817 208.2237 14.92558257  2922
ONEWEB-0665             
1 55825U 23029AF  23088.35598610  .00005421  00000+0  52564-3 0  9995
2 55825  86.5104 190.6726 0014900 149.3357 210.8745 14.92418060  2923
ONEWEB-0666             
1 55826U 23029AG  23088.28601881  .00014241  00000+0  13758-2 0  9994
2 55826  86.5120 190.7034 0015067 153.2997 206.9011 14.92649249  2910
ONEWEB-0667             
1 55827U 23029AH  23088.35099470  .00008069  00000+0  77594-3 0  9998
2 55827  86.5104 190.6699 0015554 155.2107 204.9872 14.92795597  2927
ONEWEB-0669             
1 55828U 23029AJ  23088.35206270  .00008968  00000+0  86445-3 0  9990
2 55828  86.5094 190.6692 0015249 154.3498 205.8490 14.92718375  2928
ONEWEB-0670             
1 55829U 23029AK  23088.28766404  .00008909  00000+0  86335-3 0  9996
2 55829  86.5120 190.7025 0015162 146.0479 214.1723 14.92503186  2914
ONEWEB-0671             
1 55830U 23029AL  23088.58334491  .00031149  00000+0  35262-2 0  9992
2 55830  86.5542 190.6235 0013299 142.4814 217.1368 14.86222160  1301
ONEWEB-0672             
1 55831U 23029AM  23088.35261285  .00004686  00000+0  45115-3 0  9993
2 55831  86.5092 190.6682 0015249 153.4447 206.7566 14.92668750  2928
ONEWEB-0673             
1 55832U 23029AN  23088.31912697  .00004248  00000+0  48117-3 0  9999
2 55832  86.5512 190.7425 0011232 142.9816 217.2186 14.86137003  2912
ONEWEB-0674             
1 55833U 23029AP  23088.55531643  .00008822  00000+0  85380-3 0  9999
2 55833  86.5123 190.5847 0015254 150.9546 209.2534 14.92554180  3638
ONEWEB-0675             
1 55834U 23029AQ  23088.31628301  .00006006  00000+0  67464-3 0  9997
2 55834  86.5505 190.7428 0011553 141.5154 218.6897 14.86544391  2911
ONEWEB-0720             
1 55835U 23029AR  23088.58334491 -.00668541  00000+0 -11232+0 0  9999
2 55835  86.6374 190.7750 0009578 147.2345 179.4356 14.72355833  1306
2023-030A               
1 55836U 23030A   23088.32002871 -.00000044  00000+0  17633-6 0  9993
2 55836  98.9958  96.4226 0005736 174.7099 185.4143 14.02940936  2729
2023-030B               
1 55837U 23030B   23088.59356159  .00000817  00000+0  54694-3 0  9996
2 55837  98.9976  96.7228 0002808 200.6835 159.4212 14.03795208  2762
2023-030C               
1 55838U 23030C   23088.49311009  .00000415  00000+0  20392-3 0  9993
2 55838  99.0056  97.2692 0087625 348.3464  11.5686 14.21268271  2783
2023-030D               
1 55839U 23030D   23088.60511995 -.00000043  00000+0  64501-6 0  9994
2 55839  98.9961  96.7056 0005874 175.0426 185.0798 14.02942549  2758
LUCH-5X (OLYMP-K 2)     
1 55841U 23031A   23088.71576933  .00000067  00000+0  00000+0 0  9995
2 55841   0.1532 339.0348 0017221 193.5443 341.5851  0.99505611   179
